STARLINK-36654          
1 67838U 26033T   26061.91668981  .00064970  00000+0  30916-3 0  9996
2 67838  42.9977 312.8653 0001682 265.5994  35.2492 15.81987997  3571
STARLINK-36652          
1 67839U 26033U   26061.91668981  .00008742  00000+0  44009-4 0  9991
2 67839  42.9974 312.8547 0001564 266.6502  38.4569 15.82014004  3578
STARLINK-36651          
1 67840U 26033V   26061.91668981 -.00014838  00000+0 -68020-4 0  9997
2 67840  42.9975 312.8445 0002096 237.0192  72.3656 15.82023218  3577
STARLINK-36656          
1 67841U 26033W   26061.91668981  .00055698  00000+0  26568-3 0  9995
2 67841  42.9977 312.8331 0002228 274.7795  38.8887 15.81987343  3578
STARLINK-36653          
1 67842U 26033X   26061.91668981  .00111827  00000+0  52799-3 0  9998
2 67842  42.9976 312.8222 0001636 271.8983  46.0457 15.81966247  3570
STARLINK-36589          
1 67843U 26033Y   26061.91668981 -.00033683  00000+0 -15789-3 0  9992
2 67843  42.9979 312.8115 0001989 276.6527  45.5382 15.82034957  3579
STARLINK-36598          
1 67844U 26033Z   26061.91668981  .00001272  00000+0  85741-5 0  9997
2 67844  42.9978 312.8011 0001836 268.6922  57.7908 15.82010326  3578
STARLINK-36606          
1 67845U 26033AA  26061.91668981  .00085666  00000+0  40593-3 0  9991
2 67845  42.9976 312.7898 0001896 269.1346  61.6179 15.81984464  3577
STARLINK-36658          
1 67846U 26033AB  26061.91668981  .00055140  00000+0  26302-3 0  9998
2 67846  42.9975 312.7792 0001552 269.0942  65.9320 15.81991883  3578
STARLINK-36618          
1 67847U 26033AC  26061.88002197 -.00006455  84835-5 -75024-5 0  9994
2 67847  42.9869 311.4895 0003012 257.9405 102.1136 15.98941890  3563
STARLINK-36660          
1 67848U 26033AD  26061.91668981  .00043384  00000+0  20774-3 0  9994
2 67848  42.9977 312.7685 0001876 250.2351  89.0658 15.81993051  3578
STARLINK-36602          
1 67849U 26033AE  26061.91668981  .00061811  00000+0  29450-3 0  9990
2 67849  42.9976 312.7572 0001795 306.0056  37.5806 15.81977337  3577
